0 FENGYUN 1C DEB
1 31563U 99025BZE 13281.24528014  .00002120  00000-0  51422-3 0  7949
2 31563 098.9771 075.2161 0152308 184.3443 300.9892 14.47299657340843
0 FENGYUN 1C DEB
1 31563U 99025BZE 13282.68595031  .00002351  00000-0  56860-3 0  7959
2 31563 098.9772 076.7445 0152307 180.0498 247.2842 14.47315589341052
0 FENGYUN 1C DEB
1 31563U 99025BZE 13285.65750198  .00002798  00000-0  67421-3 0  7967
2 31563 098.9791 079.8966 0152089 171.2446 250.0416 14.47327315341483
0 FENGYUN 1C DEB
1 31563U 99025BZE 13287.66169043  .00003891  00000-0  93138-3 0  7973
2 31563 098.9782 082.0237 0152211 165.2748 252.6442 14.47339390341770
0 FENGYUN 1C DEB
1 31563U 99025BZE 13289.66671648  .00003775  00000-0  90358-3 0  7987
2 31563 098.9782 084.1514 0152297 159.2988 259.7121 14.47354156342066
0 FENGYUN 1C DEB
1 31563U 99025BZE 13291.67255938  .00003232  00000-0  77545-3 0  7993
2 31563 098.9784 086.2790 0152308 153.3351 271.1181 14.47366684342354
0 FENGYUN 1C DEB
1 31563U 99025BZE 13294.71325412  .00003661  00000-0  87609-3 0  8007
2 31563 098.9792 089.5057 0152354 144.2746 274.7963 14.47385400342795
